{
"type": "FeatureCollection",
"name": "redland_city",
"crs": { "type": "name", "properties": { "name": "urn:ogc:def:crs:OGC:1.3:CRS84" } },
"features": [
{ "type": "Feature", "properties": { }, "geometry": { "type": "Polygon", "coordinates": [ [ [ 153.388834, -27.707032 ], [ 153.388457, -27.707224 ], [ 153.387641, -27.707448 ], [ 153.38725, -27.707744 ], [ 153.386856, -27.708385 ], [ 153.386451, -27.708876 ], [ 153.385981, -27.709332 ], [ 153.385446, -27.709833 ], [ 153.384808, -27.7103 ], [ 153.384392, -27.710561 ], [ 153.383742, -27.710866 ], [ 153.38312, -27.711092 ], [ 153.382317, -27.711224 ], [ 153.381683, -27.711299 ], [ 153.380534, -27.711165 ], [ 153.379915, -27.710942 ], [ 153.379311, -27.71065 ], [ 153.378848, -27.710383 ], [ 153.378425, -27.709989 ], [ 153.377692, -27.709651 ], [ 153.377049, -27.709267 ], [ 153.376574, -27.70893 ], [ 153.37594, -27.708751 ], [ 153.375334, -27.708513 ], [ 153.374366, -27.708255 ], [ 153.37327, -27.708146 ], [ 153.372318, -27.708197 ], [ 153.37152, -27.70827 ], [ 153.371031, -27.708456 ], [ 153.370429, -27.70894 ], [ 153.36997, -27.709665 ], [ 153.369833, -27.710354 ], [ 153.369414, -27.711331 ], [ 153.369057, -27.711814 ], [ 153.368621, -27.712241 ], [ 153.367773, -27.712555 ], [ 153.366833, -27.712468 ], [ 153.366419, -27.712309 ], [ 153.366056, -27.711887 ], [ 153.36515, -27.711169 ], [ 153.364735, -27.710782 ], [ 153.364012, -27.71051 ], [ 153.363624, -27.710226 ], [ 153.363262, -27.709987 ], [ 153.362834, -27.709622 ], [ 153.362549, -27.709302 ], [ 153.362185, -27.708811 ], [ 153.361964, -27.7084 ], [ 153.361793, -27.707839 ], [ 153.361776, -27.7073 ], [ 153.361722, -27.706864 ], [ 153.361744, -27.706268 ], [ 153.361866, -27.705258 ], [ 153.361863, -27.704742 ], [ 153.361937, -27.704203 ], [ 153.361971, -27.703423 ], [ 153.361956, -27.701176 ], [ 153.361965, -27.700534 ], [ 153.36191, -27.699949 ], [ 153.361738, -27.699182 ], [ 153.361555, -27.69885 ], [ 153.361268, -27.698233 ], [ 153.361058, -27.697718 ], [ 153.360796, -27.696939 ], [ 153.360726, -27.696034 ], [ 153.360774, -27.69554 ], [ 153.36073, -27.694646 ], [ 153.360597, -27.694005 ], [ 153.360336, -27.693467 ], [ 153.360164, -27.6927 ], [ 153.359838, -27.692128 ], [ 153.359201, -27.691191 ], [ 153.358838, -27.690849 ], [ 153.35818, -27.690623 ], [ 153.357485, -27.690581 ], [ 153.356235, -27.690473 ], [ 153.355476, -27.690614 ], [ 153.354473, -27.690872 ], [ 153.353394, -27.691279 ], [ 153.352752, -27.69166 ], [ 153.351892, -27.692043 ], [ 153.35039, -27.69275 ], [ 153.349016, -27.693422 ], [ 153.348399, -27.693666 ], [ 153.347886, -27.693898 ], [ 153.346137, -27.694308 ], [ 153.344313, -27.695051 ], [ 153.343399, -27.695171 ], [ 153.342499, -27.695382 ], [ 153.341999, -27.695659 ], [ 153.341409, -27.696087 ], [ 153.340832, -27.696582 ], [ 153.340074, -27.696827 ], [ 153.339379, -27.696911 ], [ 153.338697, -27.696937 ], [ 153.338026, -27.696803 ], [ 153.337445, -27.696611 ], [ 153.336451, -27.69618 ], [ 153.335871, -27.696023 ], [ 153.335404, -27.695878 ], [ 153.334254, -27.695721 ], [ 153.333273, -27.695838 ], [ 153.332554, -27.696038 ], [ 153.331534, -27.695856 ], [ 153.330433, -27.695754 ], [ 153.328938, -27.695687 ], [ 153.327759, -27.69583 ], [ 153.326503, -27.696778 ], [ 153.325484, -27.697761 ], [ 153.324528, -27.699317 ], [ 153.322508, -27.702283 ], [ 153.320668, -27.705123 ], [ 153.317135, -27.707686 ], [ 153.312908, -27.709247 ], [ 153.308863, -27.710555 ], [ 153.304616, -27.710446 ], [ 153.301028, -27.708742 ], [ 153.297082, -27.703249 ], [ 153.295163, -27.701101 ], [ 153.294018, -27.700111 ], [ 153.293037, -27.697808 ], [ 153.293025, -27.693196 ], [ 153.292521, -27.692032 ], [ 153.29135, -27.691836 ], [ 153.289458, -27.692435 ], [ 153.286674, -27.694354 ], [ 153.286575, -27.693281 ], [ 153.286576, -27.693174 ], [ 153.286696, -27.693014 ], [ 153.286805, -27.692916 ], [ 153.286845, -27.692844 ], [ 153.287104, -27.692612 ], [ 153.287154, -27.69255 ], [ 153.287274, -27.692487 ], [ 153.287474, -27.692336 ], [ 153.287523, -27.692264 ], [ 153.287593, -27.692202 ], [ 153.287603, -27.692166 ], [ 153.287763, -27.691961 ], [ 153.287942, -27.691658 ], [ 153.287981, -27.691534 ], [ 153.288031, -27.691293 ], [ 153.28804, -27.690857 ], [ 153.287887, -27.690021 ], [ 153.287877, -27.689808 ], [ 153.287836, -27.689505 ], [ 153.287786, -27.689283 ], [ 153.287765, -27.689069 ], [ 153.287715, -27.688883 ], [ 153.287564, -27.688696 ], [ 153.287424, -27.688652 ], [ 153.287294, -27.68859 ], [ 153.287004, -27.688573 ], [ 153.286814, -27.6886 ], [ 153.286744, -27.688591 ], [ 153.286424, -27.688618 ], [ 153.286404, -27.688609 ], [ 153.286304, -27.688449 ], [ 153.286284, -27.688343 ], [ 153.286293, -27.68812 ], [ 153.286392, -27.687817 ], [ 153.286542, -27.68771 ], [ 153.286752, -27.68771 ], [ 153.286992, -27.687745 ], [ 153.287152, -27.687745 ], [ 153.287442, -27.687806 ], [ 153.287772, -27.687957 ], [ 153.288032, -27.688143 ], [ 153.288212, -27.68817 ], [ 153.288372, -27.688125 ], [ 153.288502, -27.688036 ], [ 153.288662, -27.687955 ], [ 153.288881, -27.687883 ], [ 153.288981, -27.687883 ], [ 153.289191, -27.687918 ], [ 153.289282, -27.687972 ], [ 153.289362, -27.688052 ], [ 153.289442, -27.688212 ], [ 153.289643, -27.688531 ], [ 153.289873, -27.688638 ], [ 153.290043, -27.68862 ], [ 153.290183, -27.688566 ], [ 153.290253, -27.688486 ], [ 153.290302, -27.68837 ], [ 153.290342, -27.688192 ], [ 153.290351, -27.687854 ], [ 153.290331, -27.687756 ], [ 153.29028, -27.687667 ], [ 153.29019, -27.687587 ], [ 153.29015, -27.687569 ], [ 153.28977, -27.687535 ], [ 153.28956, -27.687553 ], [ 153.289361, -27.687598 ], [ 153.289141, -27.687598 ], [ 153.288981, -27.687554 ], [ 153.28887, -27.687483 ], [ 153.28877, -27.687385 ], [ 153.288642, -27.687142 ], [ 153.288567, -27.686951 ], [ 153.285717, -27.686624 ], [ 153.285209, -27.686606 ], [ 153.284682, -27.686657 ], [ 153.28264, -27.687025 ], [ 153.282245, -27.687111 ], [ 153.282336, -27.68698 ], [ 153.282996, -27.683481 ], [ 153.280976, -27.683177 ], [ 153.282646, -27.674192 ], [ 153.280823, -27.673918 ], [ 153.281081, -27.673776 ], [ 153.281236, -27.673622 ], [ 153.281326, -27.673467 ], [ 153.281253, -27.673281 ], [ 153.280988, -27.672997 ], [ 153.28075, -27.67286 ], [ 153.280495, -27.672771 ], [ 153.280467, -27.67256 ], [ 153.280692, -27.672259 ], [ 153.281009, -27.672118 ], [ 153.281405, -27.671976 ], [ 153.281616, -27.671787 ], [ 153.281747, -27.671504 ], [ 153.281694, -27.671316 ], [ 153.281494, -27.671056 ], [ 153.281269, -27.670564 ], [ 153.281163, -27.6704 ], [ 153.281153, -27.670172 ], [ 153.281082, -27.669972 ], [ 153.281044, -27.669773 ], [ 153.281077, -27.669465 ], [ 153.281053, -27.669169 ], [ 153.281117, -27.668838 ], [ 153.281183, -27.668701 ], [ 153.28144, -27.66853 ], [ 153.281706, -27.668116 ], [ 153.282078, -27.66794 ], [ 153.282209, -27.667725 ], [ 153.282215, -27.667578 ], [ 153.282353, -27.667084 ], [ 153.282352, -27.666813 ], [ 153.281925, -27.666381 ], [ 153.281742, -27.666164 ], [ 153.281467, -27.665407 ], [ 153.281161, -27.664974 ], [ 153.281038, -27.664325 ], [ 153.281037, -27.664 ], [ 153.280611, -27.66373 ], [ 153.28035, -27.663307 ], [ 153.280244, -27.663081 ], [ 153.280497, -27.662809 ], [ 153.280435, -27.662553 ], [ 153.280414, -27.662389 ], [ 153.280358, -27.662226 ], [ 153.280506, -27.661914 ], [ 153.280618, -27.661744 ], [ 153.280642, -27.661635 ], [ 153.280651, -27.661483 ], [ 153.280529, -27.661334 ], [ 153.280438, -27.661267 ], [ 153.280588, -27.660847 ], [ 153.280603, -27.66063 ], [ 153.280541, -27.660197 ], [ 153.28048, -27.660035 ], [ 153.280507, -27.65965 ], [ 153.280744, -27.659254 ], [ 153.280796, -27.659053 ], [ 153.280766, -27.658856 ], [ 153.280704, -27.658707 ], [ 153.280667, -27.658436 ], [ 153.280719, -27.658274 ], [ 153.280725, -27.658151 ], [ 153.280675, -27.657998 ], [ 153.279909, -27.658423 ], [ 153.274169, -27.657584 ], [ 153.273975, -27.65774 ], [ 153.2706579, -27.6572439 ], [ 153.26285, -27.656076 ], [ 153.262756, -27.65605 ], [ 153.262667, -27.655932 ], [ 153.262659, -27.655794 ], [ 153.262594, -27.655666 ], [ 153.262578, -27.65548 ], [ 153.262647, -27.655054 ], [ 153.262622, -27.654853 ], [ 153.262403, -27.65448 ], [ 153.262363, -27.654319 ], [ 153.26238, -27.654141 ], [ 153.26245, -27.653983 ], [ 153.261425, -27.653831 ], [ 153.2613088, -27.6538138 ], [ 153.2595144, -27.6535476 ], [ 153.25799090000001, -27.6533216 ], [ 153.254522, -27.652807 ], [ 153.254778, -27.651447 ], [ 153.254599, -27.651302 ], [ 153.2547471, -27.6505142 ], [ 153.254923, -27.649578 ], [ 153.2542954, -27.6494911 ], [ 153.248728, -27.64872 ], [ 153.2486436, -27.6487083 ], [ 153.239351, -27.6474202 ], [ 153.2389531, -27.6473663 ], [ 153.2389394, -27.6473644 ], [ 153.238879, -27.647356 ], [ 153.238944, -27.64799 ], [ 153.238981, -27.648612 ], [ 153.238936, -27.649226 ], [ 153.2388877, -27.6492254 ], [ 153.238783, -27.649224 ], [ 153.2358987, -27.6488246 ], [ 153.234948, -27.648693 ], [ 153.2333451, -27.6484578 ], [ 153.2328986, -27.6483923 ], [ 153.2292698, -27.6478598 ], [ 153.228085, -27.647686 ], [ 153.223192, -27.647001 ], [ 153.222992, -27.646984 ], [ 153.220084, -27.646583 ], [ 153.208711, -27.645078 ], [ 153.208512, -27.645174 ], [ 153.207502, -27.6447 ], [ 153.2073308, -27.6446362 ], [ 153.20703, -27.644524 ], [ 153.206428, -27.644336 ], [ 153.206113, -27.643937 ], [ 153.206737, -27.642581 ], [ 153.206997, -27.64122 ], [ 153.206847, -27.641194 ], [ 153.193923, -27.639468 ], [ 153.193556, -27.641583 ], [ 153.187548, -27.640749 ], [ 153.187612, -27.639779 ], [ 153.186792, -27.639763 ], [ 153.184594, -27.638968 ], [ 153.183215, -27.63829 ], [ 153.18292, -27.637578 ], [ 153.183161, -27.636506 ], [ 153.184027, -27.635513 ], [ 153.18361, -27.634705 ], [ 153.18229, -27.634084 ], [ 153.180817, -27.633997 ], [ 153.178791, -27.634232 ], [ 153.177656, -27.634561 ], [ 153.17704, -27.634836 ], [ 153.174879, -27.634604 ], [ 153.173841, -27.634252 ], [ 153.175745, -27.62347 ], [ 153.181733, -27.624309 ], [ 153.183446, -27.614465 ], [ 153.18344, -27.614437 ], [ 153.18376, -27.612586 ], [ 153.183659, -27.612572 ], [ 153.183557, -27.612558 ], [ 153.182674, -27.610814 ], [ 153.181248, -27.609511 ], [ 153.181177, -27.609468 ], [ 153.180829, -27.609118 ], [ 153.180433, -27.608978 ], [ 153.179867, -27.60866 ], [ 153.176888, -27.606823 ], [ 153.175711, -27.606616 ], [ 153.175667, -27.606529 ], [ 153.175644, -27.606423 ], [ 153.175643, -27.606148 ], [ 153.175738, -27.606042 ], [ 153.175856, -27.605958 ], [ 153.176046, -27.605873 ], [ 153.176663, -27.60566 ], [ 153.177114, -27.605702 ], [ 153.177399, -27.605702 ], [ 153.177898, -27.605892 ], [ 153.177993, -27.605913 ], [ 153.178112, -27.605912 ], [ 153.178207, -27.605891 ], [ 153.178325, -27.605764 ], [ 153.178491, -27.605531 ], [ 153.178728, -27.605129 ], [ 153.178775, -27.604981 ], [ 153.178727, -27.604875 ], [ 153.178609, -27.60477 ], [ 153.178371, -27.604622 ], [ 153.177587, -27.6042 ], [ 153.177468, -27.604094 ], [ 153.177301, -27.603841 ], [ 153.177206, -27.603524 ], [ 153.177086, -27.602953 ], [ 153.176967, -27.602657 ], [ 153.176872, -27.602467 ], [ 153.176729, -27.602255 ], [ 153.176539, -27.602065 ], [ 153.176372, -27.601938 ], [ 153.176063, -27.601664 ], [ 153.175683, -27.601474 ], [ 153.175089, -27.601115 ], [ 153.174875, -27.60101 ], [ 153.17478, -27.600946 ], [ 153.174566, -27.600841 ], [ 153.174448, -27.600799 ], [ 153.174258, -27.600757 ], [ 153.174115, -27.600736 ], [ 153.173973, -27.600757 ], [ 153.173878, -27.600778 ], [ 153.173807, -27.600842 ], [ 153.173641, -27.601054 ], [ 153.173546, -27.601244 ], [ 153.173404, -27.601456 ], [ 153.173191, -27.601731 ], [ 153.173143, -27.601773 ], [ 153.172811, -27.601753 ], [ 153.172645, -27.60171 ], [ 153.172359, -27.601478 ], [ 153.172145, -27.601203 ], [ 153.172074, -27.601056 ], [ 153.172002, -27.600738 ], [ 153.171978, -27.600548 ], [ 153.171978, -27.600379 ], [ 153.171954, -27.600273 ], [ 153.171716, -27.599914 ], [ 153.171621, -27.599681 ], [ 153.171549, -27.599449 ], [ 153.171525, -27.599216 ], [ 153.171548, -27.599005 ], [ 153.171596, -27.598835 ], [ 153.171815, -27.59853 ], [ 153.172616, -27.598005 ], [ 153.172998, -27.597672 ], [ 153.173192, -27.597431 ], [ 153.17359, -27.596779 ], [ 153.174, -27.595891 ], [ 153.174165, -27.595496 ], [ 153.174231, -27.595188 ], [ 153.174434, -27.59461 ], [ 153.174401, -27.594317 ], [ 153.174284, -27.593807 ], [ 153.174198, -27.593693 ], [ 153.174107, -27.593607 ], [ 153.17394, -27.593523 ], [ 153.173637, -27.5934 ], [ 153.173281, -27.593313 ], [ 153.172944, -27.593271 ], [ 153.172788, -27.593217 ], [ 153.172575, -27.593118 ], [ 153.172235, -27.592814 ], [ 153.172053, -27.592453 ], [ 153.172004, -27.592301 ], [ 153.171882, -27.591662 ], [ 153.171857, -27.591335 ], [ 153.171871, -27.591225 ], [ 153.171846, -27.591092 ], [ 153.172069, -27.590831 ], [ 153.172022, -27.590529 ], [ 153.172135, -27.590359 ], [ 153.172266, -27.590242 ], [ 153.172361, -27.590177 ], [ 153.172558, -27.590094 ], [ 153.172642, -27.590036 ], [ 153.172811, -27.589981 ], [ 153.173076, -27.589925 ], [ 153.173376, -27.589924 ], [ 153.173667, -27.589834 ], [ 153.173937, -27.589695 ], [ 153.174387, -27.589579 ], [ 153.174469, -27.589532 ], [ 153.174555, -27.589474 ], [ 153.174781, -27.588926 ], [ 153.174826, -27.588554 ], [ 153.175079, -27.588122 ], [ 153.175175, -27.588046 ], [ 153.175289, -27.587995 ], [ 153.175691, -27.58767 ], [ 153.176357, -27.587285 ], [ 153.17682, -27.587107 ], [ 153.177198, -27.587202 ], [ 153.177273, -27.587208 ], [ 153.177415, -27.587116 ], [ 153.177625, -27.586712 ], [ 153.177653, -27.586506 ], [ 153.177617, -27.586401 ], [ 153.177607, -27.585958 ], [ 153.177564, -27.585829 ], [ 153.177395, -27.585524 ], [ 153.177319, -27.585324 ], [ 153.177282, -27.585152 ], [ 153.177326, -27.584833 ], [ 153.177309, -27.584685 ], [ 153.177343, -27.584576 ], [ 153.177227, -27.58429 ], [ 153.177118, -27.584184 ], [ 153.177085, -27.584097 ], [ 153.177074, -27.584009 ], [ 153.177096, -27.583912 ], [ 153.177152, -27.583857 ], [ 153.17743, -27.582984 ], [ 153.177647, -27.582653 ], [ 153.177703, -27.582597 ], [ 153.177738, -27.582524 ], [ 153.177907, -27.582355 ], [ 153.178071, -27.582133 ], [ 153.178184, -27.58202 ], [ 153.178318, -27.581942 ], [ 153.178488, -27.581791 ], [ 153.178546, -27.58177 ], [ 153.178661, -27.581693 ], [ 153.178735, -27.581673 ], [ 153.179038, -27.581489 ], [ 153.179186, -27.581347 ], [ 153.179214, -27.58129 ], [ 153.179129, -27.580903 ], [ 153.179069, -27.580726 ], [ 153.178892, -27.580505 ], [ 153.178375, -27.580073 ], [ 153.178217, -27.579856 ], [ 153.178112, -27.57967 ], [ 153.177952, -27.579449 ], [ 153.177872, -27.579308 ], [ 153.177832, -27.579183 ], [ 153.177712, -27.578953 ], [ 153.177712, -27.578864 ], [ 153.177672, -27.578758 ], [ 153.177632, -27.578562 ], [ 153.177632, -27.578438 ], [ 153.177671, -27.578314 ], [ 153.17793, -27.577976 ], [ 153.178447, -27.57755 ], [ 153.178656100000012, -27.5773507 ], [ 153.178745, -27.577266 ], [ 153.178785, -27.577212 ], [ 153.179044, -27.577088 ], [ 153.179282, -27.576928 ], [ 153.179541, -27.576785 ], [ 153.17964, -27.576714 ], [ 153.179732, -27.576618 ], [ 153.179843, -27.576558 ], [ 153.179932, -27.576538 ], [ 153.180021, -27.576498 ], [ 153.180243, -27.576319 ], [ 153.180355, -27.57626 ], [ 153.180643, -27.576021 ], [ 153.180821, -27.575803 ], [ 153.180998, -27.575506 ], [ 153.181287, -27.575109 ], [ 153.181709, -27.574672 ], [ 153.181842, -27.574593 ], [ 153.182198, -27.574295 ], [ 153.182242, -27.574196 ], [ 153.182464, -27.573918 ], [ 153.182509, -27.573838 ], [ 153.182553, -27.57366 ], [ 153.182463, -27.573462 ], [ 153.182374, -27.573323 ], [ 153.18224, -27.573184 ], [ 153.182196, -27.573105 ], [ 153.182129, -27.573046 ], [ 153.181995, -27.572868 ], [ 153.181772, -27.57265 ], [ 153.181639, -27.572571 ], [ 153.181594, -27.572491 ], [ 153.181527, -27.572432 ], [ 153.181438, -27.572393 ], [ 153.181216, -27.572254 ], [ 153.181127, -27.572195 ], [ 153.180971, -27.572056 ], [ 153.180882, -27.572017 ], [ 153.180815, -27.571957 ], [ 153.180726, -27.571918 ], [ 153.180481, -27.57166 ], [ 153.180347, -27.571442 ], [ 153.180347, -27.571363 ], [ 153.180302, -27.571185 ], [ 153.180302, -27.571105 ], [ 153.180257, -27.570927 ], [ 153.180212, -27.570848 ], [ 153.180056, -27.57065 ], [ 153.180034, -27.57059 ], [ 153.179855, -27.570313 ], [ 153.179788, -27.570174 ], [ 153.179788, -27.569956 ], [ 153.179766, -27.569877 ], [ 153.179765, -27.569718 ], [ 153.17981, -27.56956 ], [ 153.179809, -27.569262 ], [ 153.17992, -27.568945 ], [ 153.180031, -27.568767 ], [ 153.180053, -27.568707 ], [ 153.180097, -27.568667 ], [ 153.180142, -27.568529 ], [ 153.180186, -27.568469 ], [ 153.18023, -27.56833 ], [ 153.180275, -27.568251 ], [ 153.180363, -27.567914 ], [ 153.180526, -27.56704 ], [ 153.180618, -27.566774 ], [ 153.180706, -27.566639 ], [ 153.180816, -27.566418 ], [ 153.181061, -27.566085 ], [ 153.181112, -27.565992 ], [ 153.181259, -27.565793 ], [ 153.181383, -27.565573 ], [ 153.181471, -27.565474 ], [ 153.18156, -27.565315 ], [ 153.181649, -27.565196 ], [ 153.181693, -27.565057 ], [ 153.181959, -27.564601 ], [ 153.181981, -27.564482 ], [ 153.181959, -27.564403 ], [ 153.181848, -27.564205 ], [ 153.181758, -27.563987 ], [ 153.181691, -27.563907 ], [ 153.181601, -27.563637 ], [ 153.181585, -27.563541 ], [ 153.18169, -27.562995 ], [ 153.181692, -27.562804 ], [ 153.181914, -27.562327 ], [ 153.182487, -27.562258 ], [ 153.182913, -27.562156 ], [ 153.183711, -27.561587 ], [ 153.184102, -27.561455 ], [ 153.184487, -27.561295 ], [ 153.184968, -27.561054 ], [ 153.185609, -27.560778 ], [ 153.186398, -27.560537 ], [ 153.186783, -27.560479 ], [ 153.187636, -27.560713 ], [ 153.188475, -27.560725 ], [ 153.18966, -27.560927 ], [ 153.19027, -27.560834 ], [ 153.190933, -27.561023 ], [ 153.191323, -27.560891 ], [ 153.191751, -27.560287 ], [ 153.1918, -27.560003 ], [ 153.191806, -27.559673 ], [ 153.191821, -27.559564 ], [ 153.191771, -27.558576 ], [ 153.191683, -27.558391 ], [ 153.190971, -27.558186 ], [ 153.190707, -27.557948 ], [ 153.190597, -27.557823 ], [ 153.190352, -27.55737 ], [ 153.190066, -27.556681 ], [ 153.189943, -27.556318 ], [ 153.189861, -27.555593 ], [ 153.189737, -27.555048 ], [ 153.189676, -27.553935 ], [ 153.189726, -27.553596 ], [ 153.189677, -27.553127 ], [ 153.189533, -27.552701 ], [ 153.189125, -27.55202 ], [ 153.188718, -27.551722 ], [ 153.188457, -27.551617 ], [ 153.188236, -27.551575 ], [ 153.187889, -27.551595 ], [ 153.187512, -27.551432 ], [ 153.187205, -27.551341 ], [ 153.186438, -27.551251 ], [ 153.186182, -27.55116 ], [ 153.185364, -27.551025 ], [ 153.185057, -27.550934 ], [ 153.184801, -27.550889 ], [ 153.184392, -27.550707 ], [ 153.184136, -27.55057 ], [ 153.18388, -27.550525 ], [ 153.183675, -27.550389 ], [ 153.183317, -27.550344 ], [ 153.182857, -27.550253 ], [ 153.182652, -27.550162 ], [ 153.182499, -27.54998 ], [ 153.182294, -27.549798 ], [ 153.182191, -27.549662 ], [ 153.182191, -27.54957 ], [ 153.18214, -27.549479 ], [ 153.182089, -27.549434 ], [ 153.182088, -27.549343 ], [ 153.182037, -27.549252 ], [ 153.182037, -27.548933 ], [ 153.18219, -27.548659 ], [ 153.182343, -27.548522 ], [ 153.182394, -27.548431 ], [ 153.182547, -27.548248 ], [ 153.182649, -27.548066 ], [ 153.182751, -27.547974 ], [ 153.182853, -27.547792 ], [ 153.182904, -27.54761 ], [ 153.183006, -27.547427 ], [ 153.183056, -27.547154 ], [ 153.18326, -27.546561 ], [ 153.183361, -27.545968 ], [ 153.183361, -27.545786 ], [ 153.183309, -27.545649 ], [ 153.183308, -27.544556 ], [ 153.183205, -27.544464 ], [ 153.182847, -27.544009 ], [ 153.182744, -27.543827 ], [ 153.18259, -27.543463 ], [ 153.182436, -27.543281 ], [ 153.182334, -27.543098 ], [ 153.182333, -27.542825 ], [ 153.182384, -27.542688 ], [ 153.182486, -27.542597 ], [ 153.18264, -27.542505 ], [ 153.182844, -27.542414 ], [ 153.182946, -27.542232 ], [ 153.183048, -27.541912 ], [ 153.183047, -27.541776 ], [ 153.182945, -27.541594 ], [ 153.182638, -27.54132 ], [ 153.182433, -27.54123 ], [ 153.182228, -27.541184 ], [ 153.181973, -27.541139 ], [ 153.181461, -27.54114 ], [ 153.181155, -27.541186 ], [ 153.180899, -27.541186 ], [ 153.180643, -27.541141 ], [ 153.180439, -27.541141 ], [ 153.180183, -27.541233 ], [ 153.180081, -27.541369 ], [ 153.179775, -27.541643 ], [ 153.179673, -27.54178 ], [ 153.179469, -27.542145 ], [ 153.179316, -27.542327 ], [ 153.179112, -27.54251 ], [ 153.178907, -27.542647 ], [ 153.178601, -27.542739 ], [ 153.178345, -27.542876 ], [ 153.178141, -27.542921 ], [ 153.17809, -27.542876 ], [ 153.177987, -27.542876 ], [ 153.177681, -27.542922 ], [ 153.177527, -27.542877 ], [ 153.177271, -27.542831 ], [ 153.177067, -27.542741 ], [ 153.17676, -27.54265 ], [ 153.176555, -27.542468 ], [ 153.176197, -27.542514 ], [ 153.175993, -27.54256 ], [ 153.175277, -27.542561 ], [ 153.174765, -27.54247 ], [ 153.174561, -27.542334 ], [ 153.174407, -27.542288 ], [ 153.174254, -27.542197 ], [ 153.174151, -27.541969 ], [ 153.173894, -27.540921 ], [ 153.173893, -27.540602 ], [ 153.173841, -27.540147 ], [ 153.173738, -27.539691 ], [ 153.173636, -27.539418 ], [ 153.173533, -27.539281 ], [ 153.173482, -27.538962 ], [ 153.172866, -27.537869 ], [ 153.172508, -27.537368 ], [ 153.172354, -27.537186 ], [ 153.1722, -27.53705 ], [ 153.172047, -27.536822 ], [ 153.171944, -27.536594 ], [ 153.171944, -27.536412 ], [ 153.171995, -27.536366 ], [ 153.172199, -27.535865 ], [ 153.172249, -27.535591 ], [ 153.172249, -27.535318 ], [ 153.1723, -27.535135 ], [ 153.172351, -27.535044 ], [ 153.17281, -27.534816 ], [ 153.17327, -27.534633 ], [ 153.173423, -27.53445 ], [ 153.173934, -27.534267 ], [ 153.174241, -27.534085 ], [ 153.174445, -27.533902 ], [ 153.174752, -27.533765 ], [ 153.175007, -27.533628 ], [ 153.175569, -27.533445 ], [ 153.175722, -27.533308 ], [ 153.175876, -27.533217 ], [ 153.175973, -27.53313 ], [ 153.176029, -27.53308 ], [ 153.176591, -27.532714 ], [ 153.176948, -27.532395 ], [ 153.177305, -27.532212 ], [ 153.177459, -27.53203 ], [ 153.177663, -27.531938 ], [ 153.178174, -27.531618 ], [ 153.178684, -27.531162 ], [ 153.178939, -27.530888 ], [ 153.179297, -27.53066 ], [ 153.179858, -27.530067 ], [ 153.180062, -27.529884 ], [ 153.180113, -27.529702 ], [ 153.180369, -27.529701 ], [ 153.180625, -27.529747 ], [ 153.180778, -27.529747 ], [ 153.181136, -27.529837 ], [ 153.181238, -27.529928 ], [ 153.181954, -27.530064 ], [ 153.182159, -27.530064 ], [ 153.182261, -27.530018 ], [ 153.182619, -27.529926 ], [ 153.182874, -27.529835 ], [ 153.183028, -27.529835 ], [ 153.183283, -27.529743 ], [ 153.18359, -27.529697 ], [ 153.183845, -27.52956 ], [ 153.184407, -27.529377 ], [ 153.184458, -27.529331 ], [ 153.184663, -27.52924 ], [ 153.184816, -27.529103 ], [ 153.185173, -27.528875 ], [ 153.185582, -27.52851 ], [ 153.185684, -27.528327 ], [ 153.185734, -27.528145 ], [ 153.185837, -27.528054 ], [ 153.185836, -27.527734 ], [ 153.185785, -27.527507 ], [ 153.185425, -27.526504 ], [ 153.18539, -27.526249 ], [ 153.185257, -27.525925 ], [ 153.185168, -27.525593 ], [ 153.185014, -27.525274 ], [ 153.184991, -27.525152 ], [ 153.184916, -27.524961 ], [ 153.184739, -27.524626 ], [ 153.184398, -27.523862 ], [ 153.184193, -27.523498 ], [ 153.18409, -27.523225 ], [ 153.184039, -27.522951 ], [ 153.184038, -27.522587 ], [ 153.18414, -27.522222 ], [ 153.184445, -27.521584 ], [ 153.184701, -27.521355 ], [ 153.184956, -27.521081 ], [ 153.18516, -27.520808 ], [ 153.185933, -27.520118 ], [ 153.186423, -27.519798 ], [ 153.187151, -27.519256 ], [ 153.187406, -27.519118 ], [ 153.187457, -27.518982 ], [ 153.187712, -27.518799 ], [ 153.187917, -27.518616 ], [ 153.188121, -27.518388 ], [ 153.188325, -27.518206 ], [ 153.188836, -27.517886 ], [ 153.189199, -27.517727 ], [ 153.189298, -27.517701 ], [ 153.189425699999987, -27.5176873 ], [ 153.189457, -27.517684 ], [ 153.189689, -27.517721 ], [ 153.190516, -27.518043 ], [ 153.190763, -27.51812 ], [ 153.190913, -27.51814 ], [ 153.191435, -27.518173 ], [ 153.191566, -27.518163 ], [ 153.191937, -27.518116 ], [ 153.192031, -27.51812 ], [ 153.19241, -27.51803 ], [ 153.192715, -27.518001 ], [ 153.192889, -27.518015 ], [ 153.193184, -27.518066 ], [ 153.193337, -27.518076 ], [ 153.193449, -27.518051 ], [ 153.193577, -27.51798 ], [ 153.193676, -27.517857 ], [ 153.193757, -27.517652 ], [ 153.193816, -27.517325 ], [ 153.193766, -27.516698 ], [ 153.193672, -27.516419 ], [ 153.193445, -27.515888 ], [ 153.193439, -27.515765 ], [ 153.193478, -27.515632 ], [ 153.193583, -27.51548 ], [ 153.193726, -27.515341 ], [ 153.193815, -27.515295 ], [ 153.193958, -27.515233 ], [ 153.194058, -27.515214 ], [ 153.194363, -27.515228 ], [ 153.194544, -27.515276 ], [ 153.194807, -27.515393 ], [ 153.194888, -27.515452 ], [ 153.195041, -27.515577 ], [ 153.195641, -27.516197 ], [ 153.195848, -27.516341 ], [ 153.196042, -27.516413 ], [ 153.196164, -27.516441 ], [ 153.196649, -27.51649 ], [ 153.196784, -27.516474 ], [ 153.196947, -27.516442 ], [ 153.197263, -27.516342 ], [ 153.197538, -27.516222 ], [ 153.197763, -27.516095 ], [ 153.198192, -27.515777 ], [ 153.198877, -27.515117 ], [ 153.198994, -27.515013 ], [ 153.199168, -27.514908 ], [ 153.1994, -27.514821 ], [ 153.199565, -27.514795 ], [ 153.200231, -27.514786 ], [ 153.200445, -27.514751 ], [ 153.200583, -27.514706 ], [ 153.200851, -27.514531 ], [ 153.200984, -27.514413 ], [ 153.20113, -27.514231 ], [ 153.201159, -27.514164 ], [ 153.201218, -27.514033 ], [ 153.20149, -27.512809 ], [ 153.201214, -27.512196 ], [ 153.200663, -27.511952 ], [ 153.199563, -27.512076 ], [ 153.198875, -27.512077 ], [ 153.198462, -27.51171 ], [ 153.197911, -27.510975 ], [ 153.197496, -27.510117 ], [ 153.196533, -27.510118 ], [ 153.195984, -27.510487 ], [ 153.195572, -27.510855 ], [ 153.194747, -27.511347 ], [ 153.194472, -27.511347 ], [ 153.194266, -27.511194 ], [ 153.194128, -27.510949 ], [ 153.194128, -27.510827 ], [ 153.194677, -27.510581 ], [ 153.194849, -27.510243 ], [ 153.194985, -27.509752 ], [ 153.194847, -27.509017 ], [ 153.194433, -27.508649 ], [ 153.193711, -27.508374 ], [ 153.192335, -27.508376 ], [ 153.191098, -27.508623 ], [ 153.190471, -27.508468 ], [ 153.19002, -27.507851 ], [ 153.19027, -27.507398 ], [ 153.19082, -27.507029 ], [ 153.19137, -27.506906 ], [ 153.191575, -27.506615 ], [ 153.191535, -27.506459 ], [ 153.191441, -27.506346 ], [ 153.19122, -27.506309 ], [ 153.190996, -27.506235 ], [ 153.190711, -27.506083 ], [ 153.190297, -27.505753 ], [ 153.189855, -27.505373 ], [ 153.189169, -27.505062 ], [ 153.188949, -27.504847 ], [ 153.188587, -27.504369 ], [ 153.188357, -27.504105 ], [ 153.188044, -27.503808 ], [ 153.187712, -27.50378 ], [ 153.187028, -27.504112 ], [ 153.186487, -27.504341 ], [ 153.186199, -27.504309 ], [ 153.186069, -27.504123 ], [ 153.186172, -27.503823 ], [ 153.186357, -27.50365 ], [ 153.186683, -27.503484 ], [ 153.187317, -27.503106 ], [ 153.187687, -27.502837 ], [ 153.187846, -27.502703 ], [ 153.187898, -27.502483 ], [ 153.187809, -27.501956 ], [ 153.187729, -27.501752 ], [ 153.187535, -27.501138 ], [ 153.187446, -27.500989 ], [ 153.187323, -27.500926 ], [ 153.187146, -27.500871 ], [ 153.187005, -27.500887 ], [ 153.186793, -27.500935 ], [ 153.186582, -27.501061 ], [ 153.186371, -27.501219 ], [ 153.186202, -27.501424 ], [ 153.185895, -27.501962 ], [ 153.185568, -27.502417 ], [ 153.185242, -27.502775 ], [ 153.184829, -27.502898 ], [ 153.184416, -27.502653 ], [ 153.184278, -27.502285 ], [ 153.184552, -27.501672 ], [ 153.184713, -27.501563 ], [ 153.185789, -27.500812 ], [ 153.186338, -27.50032 ], [ 153.186475, -27.499829 ], [ 153.186199, -27.499339 ], [ 153.185785, -27.498849 ], [ 153.185784, -27.498236 ], [ 153.186607, -27.496763 ], [ 153.187053, -27.496247 ], [ 153.187586, -27.49558 ], [ 153.187975, -27.495057 ], [ 153.188504, -27.494618 ], [ 153.188939, -27.494396 ], [ 153.189436, -27.494303 ], [ 153.190037, -27.494357 ], [ 153.1907, -27.494523 ], [ 153.190944, -27.494742 ], [ 153.191003, -27.494834 ], [ 153.19118, -27.494965 ], [ 153.191776, -27.495282 ], [ 153.192018, -27.495342 ], [ 153.192137, -27.495343 ], [ 153.19229, -27.495299 ], [ 153.192366, -27.495265 ], [ 153.192515, -27.495161 ], [ 153.192583, -27.495064 ], [ 153.192666, -27.494772 ], [ 153.192649, -27.494622 ], [ 153.192277, -27.493816 ], [ 153.192231, -27.493588 ], [ 153.192069, -27.493199 ], [ 153.191971, -27.492732 ], [ 153.191887, -27.492508 ], [ 153.191791, -27.492306 ], [ 153.191674, -27.49216 ], [ 153.191489, -27.492022 ], [ 153.191195, -27.49189 ], [ 153.190672, -27.491792 ], [ 153.190441, -27.491735 ], [ 153.190119, -27.491695 ], [ 153.189343, -27.491667 ], [ 153.188575, -27.491566 ], [ 153.18815, -27.491429 ], [ 153.187931, -27.491328 ], [ 153.187703, -27.491213 ], [ 153.187557, -27.49109 ], [ 153.18745, -27.490901 ], [ 153.187391, -27.490521 ], [ 153.187386, -27.490199 ], [ 153.187306, -27.489601 ], [ 153.187017, -27.488618 ], [ 153.186792, -27.487987 ], [ 153.186753, -27.487788 ], [ 153.186677, -27.487534 ], [ 153.186643, -27.487344 ], [ 153.186627, -27.486759 ], [ 153.186649, -27.486584 ], [ 153.186789, -27.486163 ], [ 153.186968, -27.485813 ], [ 153.187041, -27.48561 ], [ 153.187172, -27.485354 ], [ 153.187442, -27.484723 ], [ 153.187805, -27.484278 ], [ 153.187945, -27.484156 ], [ 153.188111, -27.484049 ], [ 153.188695, -27.483781 ], [ 153.189214, -27.483606 ], [ 153.189743, -27.483398 ], [ 153.190152, -27.483215 ], [ 153.190565, -27.482986 ], [ 153.190779, -27.482921 ], [ 153.191116, -27.482871 ], [ 153.191434, -27.48279 ], [ 153.191645, -27.482778 ], [ 153.192718, -27.4828 ], [ 153.193082, -27.482756 ], [ 153.19338, -27.482712 ], [ 153.193648, -27.482645 ], [ 153.194122, -27.482492 ], [ 153.194324, -27.482392 ], [ 153.195367, -27.48196 ], [ 153.195569, -27.481885 ], [ 153.196097, -27.481746 ], [ 153.196521, -27.481567 ], [ 153.196878, -27.481335 ], [ 153.197078, -27.481138 ], [ 153.19745, -27.48046 ], [ 153.197522, -27.480293 ], [ 153.197578, -27.480136 ], [ 153.197584, -27.479936 ], [ 153.197569, -27.479455 ], [ 153.197503, -27.479218 ], [ 153.197393, -27.478965 ], [ 153.1970331, -27.4784329 ], [ 153.1969808, -27.4781682 ], [ 153.1970455, -27.47782 ], [ 153.1970816, -27.4775364 ], [ 153.197107, -27.477375 ], [ 153.197143, -27.476567 ], [ 153.197152, -27.475826 ], [ 153.197125, -27.474135 ], [ 153.19742, -27.472976 ], [ 153.197919, -27.471206 ], [ 153.198885, -27.469714 ], [ 153.199817, -27.468719 ], [ 153.201, -27.468066 ], [ 153.202481, -27.467989 ], [ 153.203431, -27.468044 ], [ 153.216586, -27.468238 ], [ 153.217234, -27.457429 ], [ 153.21773, -27.448402 ], [ 153.3184737, -27.4223014 ], [ 153.41917, -27.396128 ], [ 153.4364, -27.391583 ], [ 153.444195, -27.389325 ], [ 153.448546, -27.389723 ], [ 153.448432, -27.390718 ], [ 153.448746, -27.390653 ], [ 153.448847, -27.38975 ], [ 153.45041, -27.389891 ], [ 153.450489, -27.389849 ], [ 153.450789, -27.389626 ], [ 153.451004, -27.389439 ], [ 153.451245, -27.389263 ], [ 153.451584, -27.389093 ], [ 153.45225, -27.388822 ], [ 153.45255, -27.388652 ], [ 153.452844, -27.388534 ], [ 153.453209, -27.388428 ], [ 153.453764, -27.388134 ], [ 153.453881, -27.388099 ], [ 153.454149, -27.388098 ], [ 153.454692, -27.38819 ], [ 153.455183, -27.388322 ], [ 153.455504, -27.388461 ], [ 153.455805, -27.388624 ], [ 153.456007, -27.388705 ], [ 153.455303, -27.389886 ], [ 153.458054, -27.391216 ], [ 153.461382, -27.393627 ], [ 153.46398, -27.396116 ], [ 153.466041, -27.398955 ], [ 153.468268, -27.402119 ], [ 153.469093, -27.403413 ], [ 153.469291, -27.403757 ], [ 153.470524, -27.40521 ], [ 153.471146, -27.405904 ], [ 153.472356, -27.40734 ], [ 153.47382, -27.408899 ], [ 153.475292, -27.410336 ], [ 153.476661, -27.411521 ], [ 153.479984, -27.413747 ], [ 153.481754, -27.414769 ], [ 153.484101, -27.415915 ], [ 153.484518, -27.416316 ], [ 153.4853, -27.416462 ], [ 153.487834, -27.417572 ], [ 153.489782, -27.418354 ], [ 153.491752, -27.419094 ], [ 153.493651, -27.41992 ], [ 153.494994, -27.420226 ], [ 153.496041, -27.420682 ], [ 153.498075, -27.421033 ], [ 153.502583, -27.421421 ], [ 153.504578, -27.421621 ], [ 153.506664, -27.421717 ], [ 153.508659, -27.421975 ], [ 153.510236, -27.422021 ], [ 153.511176, -27.421967 ], [ 153.51202, -27.421968 ], [ 153.512429, -27.421932 ], [ 153.512658, -27.421839 ], [ 153.512776, -27.421818 ], [ 153.513371, -27.421627 ], [ 153.513889, -27.421505 ], [ 153.514092, -27.42136 ], [ 153.514263, -27.421211 ], [ 153.514212, -27.421062 ], [ 153.514165, -27.42082 ], [ 153.514175, -27.420782 ], [ 153.514231, -27.42074 ], [ 153.514302, -27.420719 ], [ 153.514451, -27.420744 ], [ 153.514536, -27.420786 ], [ 153.514616, -27.420858 ], [ 153.515043, -27.421363 ], [ 153.515279, -27.421504 ], [ 153.515321, -27.421554 ], [ 153.515322, -27.421652 ], [ 153.515353, -27.421681 ], [ 153.516494, -27.422132 ], [ 153.517085, -27.422586 ], [ 153.518054, -27.42319 ], [ 153.518348, -27.423419 ], [ 153.519753, -27.42422 ], [ 153.521332, -27.424973 ], [ 153.5221, -27.42532 ], [ 153.5233991, -27.4257766 ], [ 153.524265, -27.426081 ], [ 153.52499, -27.426317 ], [ 153.525642, -27.426466 ], [ 153.527703, -27.426837 ], [ 153.528037, -27.426819 ], [ 153.528293, -27.426848 ], [ 153.528396, -27.426817 ], [ 153.528443, -27.426784 ], [ 153.528512, -27.426698 ], [ 153.528543, -27.426619 ], [ 153.528594, -27.426587 ], [ 153.528715, -27.425883 ], [ 153.529327, -27.425912 ], [ 153.529584, -27.425901 ], [ 153.529718, -27.425883 ], [ 153.529794, -27.425857 ], [ 153.53011, -27.425664 ], [ 153.530472, -27.42565 ], [ 153.530639, -27.425698 ], [ 153.530816, -27.425786 ], [ 153.531523, -27.425927 ], [ 153.532126, -27.425945 ], [ 153.532373, -27.425937 ], [ 153.532899, -27.425884 ], [ 153.533067, -27.425845 ], [ 153.533352, -27.425751 ], [ 153.534024, -27.425471 ], [ 153.534566, -27.424973 ], [ 153.534634, -27.424893 ], [ 153.534655, -27.424816 ], [ 153.534539, -27.424498 ], [ 153.534477, -27.424465 ], [ 153.53434, -27.424283 ], [ 153.534324, -27.424241 ], [ 153.534302, -27.424051 ], [ 153.534322, -27.423976 ], [ 153.534318, -27.423906 ], [ 153.534354, -27.423786 ], [ 153.534511, -27.423645 ], [ 153.5347, -27.423541 ], [ 153.535052, -27.423471 ], [ 153.535159, -27.423467 ], [ 153.535445, -27.423515 ], [ 153.535631, -27.423601 ], [ 153.535916, -27.423786 ], [ 153.53604, -27.423937 ], [ 153.536229, -27.424099 ], [ 153.536343, -27.42417 ], [ 153.536533, -27.424247 ], [ 153.536971, -27.424358 ], [ 153.537476, -27.424561 ], [ 153.537603, -27.424626 ], [ 153.538336, -27.424814 ], [ 153.539137, -27.424997 ], [ 153.539726, -27.424954 ], [ 153.539899, -27.424901 ], [ 153.540443, -27.424636 ], [ 153.541, -27.424406 ], [ 153.541125, -27.424376 ], [ 153.54156, -27.424364 ], [ 153.541809, -27.42444 ], [ 153.542032, -27.424612 ], [ 153.542165, -27.424633 ], [ 153.542279, -27.424617 ], [ 153.542413, -27.424546 ], [ 153.542622, -27.42435 ], [ 153.542737, -27.424304 ], [ 153.542892, -27.424334 ], [ 153.542939, -27.424399 ], [ 153.542935, -27.424541 ], [ 153.542817, -27.424704 ], [ 153.542824, -27.424728 ], [ 153.542921, -27.424762 ], [ 153.543104, -27.42474 ], [ 153.543194, -27.424767 ], [ 153.543332, -27.424855 ], [ 153.543406, -27.424876 ], [ 153.543633, -27.425001 ], [ 153.543691, -27.425072 ], [ 153.543878, -27.42539 ], [ 153.54401, -27.425487 ], [ 153.544066, -27.425574 ], [ 153.544059, -27.42566 ], [ 153.544039, -27.425704 ], [ 153.543957, -27.425812 ], [ 153.543766, -27.42584 ], [ 153.543691, -27.425832 ], [ 153.543625, -27.425865 ], [ 153.543586, -27.425973 ], [ 153.543497, -27.426126 ], [ 153.543278, -27.426306 ], [ 153.543199, -27.426418 ], [ 153.54299, -27.426969 ], [ 153.542856, -27.42781 ], [ 153.542857, -27.427928 ], [ 153.542776, -27.428375 ], [ 153.542637, -27.429829 ], [ 153.542639, -27.430177 ], [ 153.542705, -27.430504 ], [ 153.542754, -27.430642 ], [ 153.542854, -27.430823 ], [ 153.543269, -27.431168 ], [ 153.543549, -27.431425 ], [ 153.543636, -27.431546 ], [ 153.543757, -27.431668 ], [ 153.543856, -27.431826 ], [ 153.544013, -27.431938 ], [ 153.544089, -27.432042 ], [ 153.544135, -27.43216 ], [ 153.544329, -27.432354 ], [ 153.544436, -27.432426 ], [ 153.544504, -27.432494 ], [ 153.544692, -27.432563 ], [ 153.544899, -27.432615 ], [ 153.544964, -27.432667 ], [ 153.545034, -27.432682 ], [ 153.545135, -27.432736 ], [ 153.545192, -27.432819 ], [ 153.545209, -27.432896 ], [ 153.545172, -27.432998 ], [ 153.545268, -27.433138 ], [ 153.545391, -27.433253 ], [ 153.545619, -27.433392 ], [ 153.545695, -27.433501 ], [ 153.545749, -27.433544 ], [ 153.545978, -27.433656 ], [ 153.546087, -27.433736 ], [ 153.546271, -27.433988 ], [ 153.546349, -27.434045 ], [ 153.546438, -27.434363 ], [ 153.546487, -27.43447 ], [ 153.54649, -27.43458 ], [ 153.546513, -27.43462 ], [ 153.546507, -27.434675 ], [ 153.546455, -27.434798 ], [ 153.546405, -27.434868 ], [ 153.546402, -27.434898 ], [ 153.546363, -27.434911 ], [ 153.546279, -27.434916 ], [ 153.546189, -27.434889 ], [ 153.546076, -27.434829 ], [ 153.545959, -27.434822 ], [ 153.545846, -27.434765 ], [ 153.545723, -27.434761 ], [ 153.545557, -27.434716 ], [ 153.545451, -27.434722 ], [ 153.545386, -27.434692 ], [ 153.545022, -27.434611 ], [ 153.544935, -27.434614 ], [ 153.544752, -27.434567 ], [ 153.544537, -27.434573 ], [ 153.544509, -27.434578 ], [ 153.544464, -27.434615 ], [ 153.544478, -27.434653 ], [ 153.544529, -27.434668 ], [ 153.54475, -27.434689 ], [ 153.54507, -27.434786 ], [ 153.545163, -27.434793 ], [ 153.545331, -27.434845 ], [ 153.545533, -27.434949 ], [ 153.545578, -27.434941 ], [ 153.545682, -27.434983 ], [ 153.545845, -27.435093 ], [ 153.545944, -27.435202 ], [ 153.546139, -27.435479 ], [ 153.546181, -27.43565 ], [ 153.546165, -27.435768 ], [ 153.546176, -27.435803 ], [ 153.546204, -27.43581 ], [ 153.54626, -27.435777 ], [ 153.546288, -27.435699 ], [ 153.546316, -27.435667 ], [ 153.546349, -27.435659 ], [ 153.546377, -27.435687 ], [ 153.546414, -27.435787 ], [ 153.546412, -27.435827 ], [ 153.546385, -27.435989 ], [ 153.546363, -27.436023 ], [ 153.546364, -27.436163 ], [ 153.546329, -27.436369 ], [ 153.54619, -27.436618 ], [ 153.546154, -27.436633 ], [ 153.546144, -27.436667 ], [ 153.546069, -27.43675 ], [ 153.545996, -27.436769 ], [ 153.545785, -27.436866 ], [ 153.545447, -27.436884 ], [ 153.545126, -27.43677 ], [ 153.544996, -27.436746 ], [ 153.544908, -27.436678 ], [ 153.544802, -27.436641 ], [ 153.544776, -27.436608 ], [ 153.544693, -27.436566 ], [ 153.544241, -27.436428 ], [ 153.544123, -27.436428 ], [ 153.54408, -27.436401 ], [ 153.543953, -27.43637 ], [ 153.543825, -27.436312 ], [ 153.54374, -27.436302 ], [ 153.543625, -27.436223 ], [ 153.543506, -27.436017 ], [ 153.543454, -27.435955 ], [ 153.543323, -27.43585 ], [ 153.543238, -27.43581 ], [ 153.543159, -27.435794 ], [ 153.543012, -27.435808 ], [ 153.542856, -27.435841 ], [ 153.542568, -27.435932 ], [ 153.542512, -27.436007 ], [ 153.542507, -27.43606 ], [ 153.542531, -27.436105 ], [ 153.542573, -27.436133 ], [ 153.542842, -27.436205 ], [ 153.543195, -27.436476 ], [ 153.543299, -27.436512 ], [ 153.543548, -27.436556 ], [ 153.543722, -27.436624 ], [ 153.543863, -27.436721 ], [ 153.543901, -27.436774 ], [ 153.543911, -27.436823 ], [ 153.543878, -27.436847 ], [ 153.543798, -27.436823 ], [ 153.54361, -27.436694 ], [ 153.543497, -27.436654 ], [ 153.543464, -27.436686 ], [ 153.543473, -27.436731 ], [ 153.54354, -27.436832 ], [ 153.543587, -27.436893 ], [ 153.543662, -27.436954 ], [ 153.543785, -27.437124 ], [ 153.543786, -27.43716 ], [ 153.543729, -27.437197 ], [ 153.543584, -27.437173 ], [ 153.543556, -27.437194 ], [ 153.543533, -27.437287 ], [ 153.543439, -27.4373 ], [ 153.543166, -27.437208 ], [ 153.543034, -27.437131 ], [ 153.542794, -27.437026 ], [ 153.542634, -27.436933 ], [ 153.542536, -27.436833 ], [ 153.54237, -27.436747 ], [ 153.542252, -27.436715 ], [ 153.542097, -27.4367 ], [ 153.541866, -27.436721 ], [ 153.541809, -27.437067 ], [ 153.541451, -27.437382 ], [ 153.541378, -27.437466 ], [ 153.541321, -27.437675 ], [ 153.540062, -27.440068 ], [ 153.538976, -27.441731 ], [ 153.538286, -27.442795 ], [ 153.537935, -27.443302 ], [ 153.537532, -27.443974 ], [ 153.537182, -27.444368 ], [ 153.536961, -27.444704 ], [ 153.536603, -27.445354 ], [ 153.535326, -27.447272 ], [ 153.534976, -27.447645 ], [ 153.534698, -27.448158 ], [ 153.534348, -27.448681 ], [ 153.534069, -27.44918 ], [ 153.533599, -27.449817 ], [ 153.533195, -27.450561 ], [ 153.532799, -27.451184 ], [ 153.532462, -27.451767 ], [ 153.530587, -27.454681 ], [ 153.530474, -27.454981 ], [ 153.530188, -27.455493 ], [ 153.529742, -27.456198 ], [ 153.529408, -27.456878 ], [ 153.529065, -27.457481 ], [ 153.528705, -27.458043 ], [ 153.527975, -27.459599 ], [ 153.526898, -27.461746 ], [ 153.52669, -27.461875 ], [ 153.526614, -27.461897 ], [ 153.526525, -27.462023 ], [ 153.52654, -27.462115 ], [ 153.5266, -27.462259 ], [ 153.526599, -27.462418 ], [ 153.526365, -27.462997 ], [ 153.526014, -27.463689 ], [ 153.525829, -27.464113 ], [ 153.525701, -27.464472 ], [ 153.525004, -27.465914 ], [ 153.524579, -27.466857 ], [ 153.524434, -27.467088 ], [ 153.524265, -27.467498 ], [ 153.52412, -27.467689 ], [ 153.52398, -27.46818 ], [ 153.523668, -27.468905 ], [ 153.523501, -27.469166 ], [ 153.523446, -27.469381 ], [ 153.523296, -27.469757 ], [ 153.523078, -27.470404 ], [ 153.522818, -27.471007 ], [ 153.522773, -27.471208 ], [ 153.522661, -27.471405 ], [ 153.522495, -27.471784 ], [ 153.522294, -27.472389 ], [ 153.522106, -27.472723 ], [ 153.521834, -27.473288 ], [ 153.521758, -27.473588 ], [ 153.521438, -27.474362 ], [ 153.521359, -27.474721 ], [ 153.52119, -27.475217 ], [ 153.521045, -27.475527 ], [ 153.520666, -27.47659 ], [ 153.520114, -27.477984 ], [ 153.519849, -27.478456 ], [ 153.519707, -27.478814 ], [ 153.519574, -27.479248 ], [ 153.519266, -27.480112 ], [ 153.519099, -27.480498 ], [ 153.518895, -27.480911 ], [ 153.518539, -27.481876 ], [ 153.518088, -27.482824 ], [ 153.517806, -27.483511 ], [ 153.516867, -27.485501 ], [ 153.516434, -27.486516 ], [ 153.516074, -27.487268 ], [ 153.515868, -27.487761 ], [ 153.515769, -27.488043 ], [ 153.515187, -27.489322 ], [ 153.515013, -27.489939 ], [ 153.514305, -27.491661 ], [ 153.514096, -27.492148 ], [ 153.513904, -27.492493 ], [ 153.513173, -27.494213 ], [ 153.512433, -27.495878 ], [ 153.512189, -27.496624 ], [ 153.512011, -27.497011 ], [ 153.511536, -27.49826 ], [ 153.51142, -27.498617 ], [ 153.511258, -27.498973 ], [ 153.511457, -27.498982 ], [ 153.511104, -27.500284 ], [ 153.510398, -27.501779 ], [ 153.509659, -27.50372 ], [ 153.508179, -27.507283 ], [ 153.507016, -27.509955 ], [ 153.50663, -27.51118 ], [ 153.505978, -27.512818 ], [ 153.504779, -27.515554 ], [ 153.502877, -27.520406 ], [ 153.502349, -27.521662 ], [ 153.501866, -27.523155 ], [ 153.501647, -27.523664 ], [ 153.501393, -27.524348 ], [ 153.501033, -27.525154 ], [ 153.500958, -27.525428 ], [ 153.500446, -27.52658 ], [ 153.500266, -27.52704 ], [ 153.499192, -27.530035 ], [ 153.497706, -27.533979 ], [ 153.49636, -27.537653 ], [ 153.494709, -27.54191 ], [ 153.494057, -27.543646 ], [ 153.489125, -27.557325 ], [ 153.487241, -27.562379 ], [ 153.484675, -27.569662 ], [ 153.482323, -27.576412 ], [ 153.481387, -27.579136 ], [ 153.480779, -27.580999 ], [ 153.480251, -27.582721 ], [ 153.478835, -27.587473 ], [ 153.47827, -27.589268 ], [ 153.4773236, -27.5921693 ], [ 153.475191, -27.599214 ], [ 153.47465, -27.600898 ], [ 153.473466, -27.604442 ], [ 153.473154, -27.605417 ], [ 153.472913, -27.606246 ], [ 153.472488, -27.608026 ], [ 153.47207, -27.609538 ], [ 153.471802, -27.610881 ], [ 153.471543, -27.611988 ], [ 153.470526, -27.615927 ], [ 153.469579, -27.619833 ], [ 153.468762, -27.623013 ], [ 153.468364, -27.624866 ], [ 153.46733, -27.629442 ], [ 153.465317, -27.638844 ], [ 153.462351, -27.652952 ], [ 153.459606, -27.666167 ], [ 153.45851, -27.671614 ], [ 153.457558, -27.676592 ], [ 153.457124, -27.678991 ], [ 153.456713, -27.681374 ], [ 153.455946, -27.686153 ], [ 153.455595, -27.688507 ], [ 153.454968, -27.69301 ], [ 153.454458, -27.69707 ], [ 153.454083, -27.700486 ], [ 153.453947, -27.70193 ], [ 153.453759, -27.704363 ], [ 153.453701, -27.705384 ], [ 153.453639, -27.707115 ], [ 153.453628, -27.708537 ], [ 153.453648, -27.709756 ], [ 153.453812, -27.7135979 ], [ 153.453847, -27.714777 ], [ 153.453863, -27.716516 ], [ 153.453839, -27.717588 ], [ 153.453785, -27.718568 ], [ 153.453653, -27.719896 ], [ 153.453535, -27.72071 ], [ 153.453318, -27.721863 ], [ 153.453143, -27.722603 ], [ 153.452941, -27.723336 ], [ 153.452709, -27.724073 ], [ 153.45245, -27.724805 ], [ 153.452171, -27.725506 ], [ 153.451879, -27.726149 ], [ 153.451583, -27.726706 ], [ 153.451279, -27.727175 ], [ 153.450953, -27.727573 ], [ 153.450591, -27.72792 ], [ 153.450179, -27.728233 ], [ 153.449722, -27.728518 ], [ 153.449244, -27.728766 ], [ 153.449003, -27.728873 ], [ 153.448536, -27.729047 ], [ 153.448099, -27.7291612 ], [ 153.447686, -27.729217 ], [ 153.446741, -27.735201 ], [ 153.444686, -27.735106 ], [ 153.443264, -27.735131 ], [ 153.442176, -27.735262 ], [ 153.441024, -27.735426 ], [ 153.439949, -27.735671 ], [ 153.439289, -27.735747 ], [ 153.43778, -27.736736 ], [ 153.436571, -27.737394 ], [ 153.433932, -27.738927 ], [ 153.433087, -27.739404 ], [ 153.432061, -27.739914 ], [ 153.431177, -27.740436 ], [ 153.429708, -27.741195 ], [ 153.427971, -27.741712 ], [ 153.426868, -27.742129 ], [ 153.425247, -27.742658 ], [ 153.42416, -27.742719 ], [ 153.423033, -27.742907 ], [ 153.421868, -27.743037 ], [ 153.420962, -27.743168 ], [ 153.419655, -27.743228 ], [ 153.417817, -27.743491 ], [ 153.416522, -27.743631 ], [ 153.415629, -27.743763 ], [ 153.414465, -27.743732 ], [ 153.413341, -27.74362 ], [ 153.412489, -27.743476 ], [ 153.410531, -27.74275 ], [ 153.409696, -27.742228 ], [ 153.409068, -27.741569 ], [ 153.408261, -27.740851 ], [ 153.407855, -27.739963 ], [ 153.407437, -27.739133 ], [ 153.40703, -27.738372 ], [ 153.406623, -27.737657 ], [ 153.406383, -27.737093 ], [ 153.406053, -27.736447 ], [ 153.405915, -27.735986 ], [ 153.405548, -27.735145 ], [ 153.405296, -27.734523 ], [ 153.40507, -27.733855 ], [ 153.404922, -27.733096 ], [ 153.404772, -27.732498 ], [ 153.404688, -27.731865 ], [ 153.40463, -27.731141 ], [ 153.404635, -27.73067 ], [ 153.40468, -27.730004 ], [ 153.404662, -27.729212 ], [ 153.404591, -27.728533 ], [ 153.404378, -27.727785 ], [ 153.404023, -27.727048 ], [ 153.403722, -27.726126 ], [ 153.403315, -27.725377 ], [ 153.402644, -27.723982 ], [ 153.40211, -27.722979 ], [ 153.401703, -27.722275 ], [ 153.401387, -27.721618 ], [ 153.400927, -27.721029 ], [ 153.400456, -27.720314 ], [ 153.39988, -27.719655 ], [ 153.399137, -27.719006 ], [ 153.398277, -27.718334 ], [ 153.397545, -27.717858 ], [ 153.396867, -27.717118 ], [ 153.395271, -27.716429 ], [ 153.394614, -27.716171 ], [ 153.394009, -27.715834 ], [ 153.393548, -27.715474 ], [ 153.393112, -27.715069 ], [ 153.392731, -27.714412 ], [ 153.392442, -27.713537 ], [ 153.392384, -27.712858 ], [ 153.392495, -27.712101 ], [ 153.392424, -27.711377 ], [ 153.392474, -27.710228 ], [ 153.392278, -27.70909 ], [ 153.392101, -27.708721 ], [ 153.391978, -27.708054 ], [ 153.391723, -27.707719 ], [ 153.391235, -27.707428 ], [ 153.39045, -27.707032 ], [ 153.389985, -27.70704 ], [ 153.389469, -27.706933 ], [ 153.388834, -27.707032 ] ] ] } }
]
}
